1 45079U 20006AM  23252.57041248  .00003433  00000-0  24922-3 0  9993
2 45079  53.0569  41.2715 0001218  84.8720 275.2408 15.06400424199256
1 45079U 20006AM  23252.70310676  .00005033  00000-0  35654-3 0  9994
2 45079  53.0567  40.6758 0001294  85.3648 274.7488 15.06400308199278
1 45079U 20006AM  23253.56561049  .00016076  00000-0  10950-2 0  9991
2 45079  53.0563  36.8036 0001241  86.4807 273.6324 15.06422075199408
1 45079U 20006AM  23253.69830133  .00017514  00000-0  11908-2 0  9990
2 45079  53.0563  36.2081 0001246  86.5085 273.6046 15.06428618199428
1 45079U 20006AM  23254.09638421  .00003083  00000-0  22575-3 0  9990
2 45079  53.0562  34.4198 0001841  91.5158 268.6042 15.06408773199480
1 45079U 20006AM  23254.56081557  .00003492  00000-0  25321-3 0  9990
2 45079  53.0560  32.3360 0002156  90.7617 269.3619 15.06400895199550
1 45079U 20006AM  23254.69350816  .00007037  00000-0  49079-3 0  9996
2 45079  53.0557  31.7403 0001434  98.8299 261.2852 15.06401091199571
1 45079U 20006AM  23254.75985429  .00025706  00000-0  17382-2 0  9991
2 45079  53.0557  31.4430 0001665 137.6897 222.4221 15.06403354199584
1 45079U 20006AM  23255.55600898 -.00000386  00000-0 -70579-5 0  9993
2 45079  53.0555  27.8687 0001167  71.4835 288.6281 15.06388618199708
1 45079U 20006AM  23255.68870514  .00011584  00000-0  79571-3 0  9990
2 45079  53.0559  27.2733 0001327  73.4432 286.6702 15.06380689199729
1 45079U 20006AM  23256.35218482  .00012541  00000-0  85975-3 0  9994
2 45079  53.0559  24.2948 0001362  86.7308 273.3837 15.06381308199824
1 45079U 20006AM  23256.55122674  .00012317  00000-0  84466-3 0  9998
2 45079  53.0558  23.4015 0001355  85.4160 274.6984 15.06386235199857
1 45079U 20006AM  23256.61757377  .00013200  00000-0  90366-3 0  9997
2 45079  53.0557  23.1036 0001389  85.5803 274.5344 15.06389207199860
1 45079U 20006AM  23257.34739628  .00005548  00000-0  39113-3 0  9996
2 45079  53.0565  19.8292 0001653  78.4674 281.6501 15.06390027199974
1 45079U 20006AM  23257.54644258  .00003115  00000-0  22802-3 0  9997
2 45079  53.0555  18.9363 0001497  75.2210 284.8944 15.06382170200002
1 45079U 20006AM  23257.61278952  .00002985  00000-0  21927-3 0  9990
2 45079  53.0558  18.6380 0001389  68.9526 291.1612 15.06383659200017
1 45079U 20006AM  23257.61278952  .00002985  00000-0  21927-3 0  9990
2 45079  53.0558  18.6380 0001389  68.9526 291.1612 15.06383659200017
1 45079U 20006AM  23258.54165175  .00002797  00000-0  20665-3 0  9994
2 45079  53.0578  14.4690 0001439  96.9818 263.1335 15.06389043200157
1 45079U 20006AM  23258.67434475  .00003427  00000-0  24887-3 0  9991
2 45079  53.0583  13.8729 0001619 108.9919 251.1246 15.06392078200177
1 45079U 20006AM  23259.33780175  .00011722  00000-0  80403-3 0  9999
2 45079  53.0565  10.8931 0001104  96.1555 263.9560 15.06421347200275
1 45079U 20006AM  23259.53683603  .00013880  00000-0  94798-3 0  9998
2 45079  53.0576   9.9989 0001421 108.8108 251.3035 15.06435964200308
1 45079U 20006AM  23259.60318087  .00015076  00000-0  10278-2 0  9996
2 45079  53.0572   9.7028 0001253  95.2780 264.8352 15.06438362200311
1 45079U 20006AM  23260.00126003  .00006755  00000-0  47162-3 0  9994
2 45079  53.0568   7.9122 0001799  70.1269 289.9914 15.06427351200374
1 45079U 20006AM  23260.26664964  .00004424  00000-0  31551-3 0  9991
2 45079  53.0569   6.7243 0002554  77.1442 282.9832 15.06422943200415
1 45079U 20006AM  23260.53203724  .00002240  00000-0  16922-3 0  9993
2 45079  53.0567   5.5326 0001271  76.6434 283.4697 15.06402477200451
1 45079U 20006AM  23260.53203724  .00002240  00000-0  16922-3 0  9993
2 45079  53.0567   5.5326 0001271  76.6434 283.4697 15.06402477200451
1 45079U 20006AM  23261.52724058  .00029133  00000-0  19651-2 0  9992
2 45079  53.0557   1.0653 0001335  65.8392 294.2737 15.06429577200600
1 45079U 20006AM  23261.59358585  .00029980  00000-0  20212-2 0  9992
2 45079  53.0554   0.7675 0001318  62.9899 297.1224 15.06433811200618
1 45079U 20006AM  23261.59358585  .00029980  00000-0  20212-2 0  9992
2 45079  53.0554   0.7675 0001318  62.9899 297.1224 15.06433811200618
1 45079U 20006AM  23261.99166617  .00019362  00000-0  13144-2 0  9998
2 45079  53.0553 358.9798 0001282  74.2229 285.8902 15.06421654200679
1 45079U 20006AM  23262.45609587  .00015744  00000-0  10735-2 0  9991
2 45079  53.0547 356.8951 0001161  81.2738 278.8382 15.06399535200743
1 45079U 20006AM  23262.58878957  .00034914  00000-0  23506-2 0  9994
2 45079  53.0545 356.2993 0001109  79.4922 280.6192 15.06409651200760
1 45079U 20006AM  23263.51766262  .00017694  00000-0  12043-2 0  9993
2 45079  53.0550 352.1290 0001269  91.0423 269.0712 15.06384356200903
1 45079U 20006AM  23263.51766262  .00017694  00000-0  12043-2 0  9993
2 45079  53.0550 352.1290 0001269  91.0423 269.0712 15.06384356200903
1 45079U 20006AM  23264.44653241  .00005404  00000-0  38156-3 0  9998
2 45079  53.0552 347.9604 0001437  93.5918 266.5235 15.06381529201046
1 45079U 20006AM  23264.51287937  .00006088  00000-0  42741-3 0  9995
2 45079  53.0543 347.6612 0001355  93.2655 266.8489 15.06383306201056
1 45079U 20006AM  23265.44172570  .00018360  00000-0  12473-2 0  9998
2 45079  53.0544 343.4921 0001392  91.0034 269.1114 15.06429200201192
1 45079U 20006AM  23265.50807084  .00019734  00000-0  13388-2 0  9992
2 45079  53.0544 343.1942 0001392  90.6116 269.5032 15.06433676201205
1 45079U 20006AM  23265.90613898  .00019040  00000-0  12919-2 0  9993
2 45079  53.0543 341.4066 0001390  90.9246 269.1902 15.06450867201266
1 45079U 20006AM  23266.43692667  .00019182  00000-0  13033-2 0  9998
2 45079  53.0552 339.0244 0001360  77.3123 282.8018 15.06394700201349
1 45079U 20006AM  23266.43692667  .00019182  00000-0  13033-2 0  9998
2 45079  53.0552 339.0244 0001360  77.3123 282.8018 15.06394700201349
1 45079U 20006AM  23267.49846057  .00025704  00000-0  17360-2 0  9993
2 45079  53.0545 334.2589 0001445  71.8173 288.2973 15.06446903201509
1 45079U 20006AM  23267.49846057  .00025704  00000-0  17360-2 0  9993
2 45079  53.0545 334.2589 0001445  71.8173 288.2973 15.06446903201509
1 45079U 20006AM  23268.36097442  .00047352  00000-0  31743-2 0  9990
2 45079  53.0542 330.3870 0001302  77.1189 282.9945 15.06426504201633
1 45079U 20006AM  23268.49366848  .00022182  00000-0  15033-2 0  9991
2 45079  53.0543 329.7905 0001310  87.8849 272.2290 15.06401285201651
1 45079U 20006AM  23268.49366848  .00022182  00000-0  15033-2 0  9991
2 45079  53.0543 329.7905 0001310  87.8849 272.2290 15.06401285201651
1 45079U 20006AM  23268.95810044  .00028824  00000-0  19467-2 0  9998
2 45079  53.0546 327.7069 0001470 118.3614 241.7523 15.06387541201726
1 45079U 20006AM  23269.42253449  .00020742  00000-0  14077-2 0  9994
2 45079  53.0542 325.6223 0001311 104.4591 255.6543 15.06388307201799
1 45079U 20006AM  23269.42253449  .00020742  00000-0  14077-2 0  9994
2 45079  53.0542 325.6223 0001311 104.4591 255.6543 15.06388307201799
1 45079U 20006AM  23269.95331519  .00014900  00000-0  10172-2 0  9998
2 45079  53.0539 323.2438 0001561  68.1565 291.9590 15.06396078201879
1 45079U 20006AM  23270.41774515  .00002570  00000-0  19140-3 0  9993
2 45079  53.0538 321.1547 0001160  95.1071 265.0050 15.06388427201943
1 45079U 20006AM  23270.41774515  .00002570  00000-0  19140-3 0  9993
2 45079  53.0538 321.1547 0001160  95.1071 265.0050 15.06388427201943
1 45079U 20006AM  23270.94851729  .00005551  00000-0  39122-3 0  9998
2 45079  53.0539 318.7715 0001064 101.0991 259.0118 15.06400530202022
1 45079U 20006AM  23271.54563150  .00008742  00000-0  60479-3 0  9997
2 45079  53.0531 316.0896 0001065 102.1568 257.9540 15.06417273202116
1 45079U 20006AM  23271.54563150  .00008742  00000-0  60479-3 0  9997
2 45079  53.0531 316.0896 0001065 102.1568 257.9540 15.06417273202116
1 45079U 20006AM  23272.07641268 -.00001948  00000-0 -11192-3 0  9994
2 45079  53.0537 313.7085 0000930  92.2940 267.8156 15.06395130202197
1 45079U 20006AM  23272.34180074 -.00000772  00000-0 -32975-4 0  9994
2 45079  53.0536 312.5168 0000903 102.2850 257.8240 15.06392058202231
1 45079U 20006AM  23273.27066713  .00016147  00000-0  11005-2 0  9990
2 45079  53.0527 308.3453 0001038  89.4277 270.6831 15.06397579202377
1 45079U 20006AM  23273.40335925  .00020877  00000-0  14159-2 0  9997
2 45079  53.0528 307.7507 0001123  97.0747 263.0370 15.06410388202393
1 45079U 20006AM  23273.80143818  .00014915  00000-0  10177-2 0  9991
2 45079  53.0519 305.9643 0000953  85.9741 274.1357 15.06414114202450
1 45079U 20006AM  23274.46491013  .00005948  00000-0  41785-3 0  9993
2 45079  53.0542 302.9844 0001686  89.4653 270.6529 15.06399165202552
1 45079U 20006AM  23274.46491013  .00005948  00000-0  41785-3 0  9993
2 45079  53.0542 302.9844 0001686  89.4653 270.6529 15.06399165202552
1 45079U 20006AM  23274.79663712  .00010254  00000-0  70590-3 0  9998
2 45079  53.0528 301.4971 0001276  87.8081 272.3054 15.06418382202604
1 45079U 20006AM  23275.12836461  .00020098  00000-0  13630-2 0  9997
2 45079  53.0528 300.0053 0001270  87.7198 272.3936 15.06435871202658
1 45079U 20006AM  23275.79182224 -.00000953  00000-0 -45081-4 0  9998
2 45079  53.0525 297.0275 0001305  89.3526 270.7612 15.06419748202757
1 45079U 20006AM  23275.79182224 -.00000953  00000-0 -45081-4 0  9998
2 45079  53.0525 297.0275 0001305  89.3526 270.7612 15.06419748202757
1 45079U 20006AM  23276.05721582 -.00002780  00000-0 -16772-3 0  9998
2 45079  53.0527 295.8354 0002164  89.4260 270.6977 15.06406379202796
1 45079U 20006AM  23276.45530289  .00021836  00000-0  14810-2 0  9995
2 45079  53.0529 294.0484 0001812  95.1866 264.9330 15.06381462202859
1 45079U 20006AM  23276.45530289  .00021836  00000-0  14810-2 0  9995
2 45079  53.0529 294.0484 0001812  95.1866 264.9330 15.06381462202859
1 45079U 20006AM  23277.31780742  .00024581  00000-0  16622-2 0  9995
2 45079  53.0533 290.1763 0001867  95.7430 264.3772 15.06425223202986
1 45079U 20006AM  23277.31780744  .00026507  00000-0  17904-2 0  9991
2 45079  53.0531 290.1763 0001860  95.2661 264.8540 15.06426583202986
